[{"OBJECT_NAME":"FENGYUN 3B","OBJECT_ID":"2010-059A","EPOCH":"2026-03-10T00:20:44.307744","MEAN_MOTION":14.14816293,"ECCENTRICITY":0.00231137,"INCLINATION":98.9763,"RA_OF_ASC_NODE":114.55,"ARG_OF_PERICENTER":107.0698,"MEAN_ANOMALY":316.1301,"EPHEMERIS_TYPE":0,"CLASSIFICATION_TYPE":"U","NORAD_CAT_ID":37214,"ELEMENT_SET_NO":999,"REV_AT_EPOCH":79340,"BSTAR":-0.00015312798,"MEAN_MOTION_DOT":-3.41e-6,"MEAN_MOTION_DDOT":0},{"OBJECT_NAME":"FENGYUN 1C DEB","OBJECT_ID":"1999-025DBR","EPOCH":"2026-03-08T13:21:55.343520","MEAN_MOTION":14.02504403,"ECCENTRICITY":0.00982996,"INCLINATION":99.3707,"RA_OF_ASC_NODE":344.6876,"ARG_OF_PERICENTER":331.437,"MEAN_ANOMALY":28.143,"EPHEMERIS_TYPE":0,"CLASSIFICATION_TYPE":"U","NORAD_CAT_ID":32453,"ELEMENT_SET_NO":999,"REV_AT_EPOCH":94631,"BSTAR":0.0011628148,"MEAN_MOTION_DOT":1.819e-5,"MEAN_MOTION_DDOT":0}]
